ARIANE 40 R/B           
1 20443U 90005H   26043.17116420  .00000292  00000+0  10655-3 0  9996
2 20443  98.3142 104.5859 0008913 282.5681  77.4510 14.39853293889137
DELTA 2 R/B(1)          
1 20453U 90008B   26043.19301809  .00079978  00000+0  10444-2 0  9991
2 20453  35.6052 341.7229 0092440  20.4748 339.9657 15.52436033922163
COSMOS 2058             
1 20465U 90010A   26043.48664592  .00004835  00000+0  28680-3 0  9992
2 20465  82.4652  72.2569 0011682  67.1811 293.0651 15.11086807938439
SL-14 R/B               
1 20466U 90010B   26043.19191698  .00000479  00000+0  55050-4 0  9995
2 20466  82.5023 291.3413 0020580  27.8969 332.3345 14.83546915924700
SL-14 R/B               
1 20511U 90018B   26043.05010788  .00000474  00000+0  56489-4 0  9991
2 20511  82.5180 247.0598 0016460 171.5118 188.6378 14.82117379918788
HST                     
1 20580U 90037B   26043.49171821  .00008687  00000+0  29105-3 0  9990
2 20580  28.4657 211.8407 0001559 176.0955 183.9653 15.29076193769454
SL-16 R/B               
1 20625U 90046B   26043.31885521  .00000322  00000+0  19087-3 0  9996
2 20625  71.0009 351.1944 0014928 335.0034  25.0364 14.15008374844800
COSMOS 2084             
1 20663U 90055A   26043.48299229  .00002867  00000+0  21157-3 0  9997
2 20663  62.7896  61.5378 0021046 184.6655 175.4252 15.05485153932529
SL-6 R/B(2)             
1 20666U 90055D   26043.23199247  .00003074  00000+0  23810-3 0  9991
2 20666  62.7847 340.4143 0020940 340.0558  19.9720 15.03464027934360
SL-8 R/B                
1 20775U 90078B   26043.10017059  .00016470  00000+0  48439-3 0  9991
2 20775  82.9022 274.3082 0366741  99.7328 264.5509 14.88210290805499
SL-8 R/B                
1 21088U 91006B   26043.49260443  .00000029  00000+0  13819-4 0  9998
2 21088  82.9439 188.7781 0023738 105.4062 318.5244 13.77492206760604
OKEAN-3                 
1 21397U 91039A   26043.34249616  .00004453  00000+0  31444-3 0  9998
2 21397  82.5176   1.3910 0016380  60.3606 299.9250 15.04601542861229
COSMOS 2151             
1 21422U 91042A   26043.46844012  .00002023  00000+0  16026-3 0  9995
2 21422  82.4959 108.0068 0013533 139.8108 220.4120 15.00009177859416
SL-14 R/B               
1 21423U 91042B   26043.50288922  .00000446  00000+0  53439-4 0  9990
2 21423  82.4898 243.8059 0016268 328.4907  31.5331 14.81804728849347
ERS-1                   
1 21574U 91050A   26043.46467945  .00000405  00000+0  14450-3 0  9999
2 21574  98.7894  61.0648 0030898 277.3949  82.3727 14.39428898812107
ARIANE 40 R/B           
1 21610U 91050F   26043.15953200  .00000339  00000+0  11404-3 0  9992
2 21610  98.2068  96.3471 0003972 137.4020 222.7480 14.42874631815316
INTERCOSMOS 25          
1 21819U 91086A   26043.22880446  .00001625  00000+0  31528-3 0  9999
2 21819  82.6086 325.3940 1486844 171.7826 191.0863 12.11929363493603
SL-8 R/B                
1 21876U 92008B   26043.20911829  .00000031  00000+0  16022-4 0  9998
2 21876  82.9259 286.7347 0033989 203.9858 271.5121 13.75969700705913
SL-8 R/B                
1 21938U 92020B   26043.45349219  .00000117  00000+0  10537-3 0  9995
2 21938  82.9335 172.4927 0029058  10.9554  59.1455 13.75545991697667
USA 81                  
1 21949U 92023A   26043.37022563  .00000215  00000+0  72337-4 0  9997
2 21949  85.0120 146.0411 0002701 100.3624 259.7873 14.32358795 91161
COSMOS 2219             
1 22219U 92076A   26043.47959471  .00000047  00000+0  49577-4 0  9997
2 22219  71.0578  70.7714 0020172 241.3480 118.5614 14.14076770714810
SL-16 R/B               
1 22220U 92076B   26043.48355517 -.00000107  00000+0 -29680-4 0  9993
2 22220  70.9977 241.4700 0011294 141.6906 234.1856 14.16856005718260
COSMOS 2221             
1 22236U 92080A   26043.22292344  .00002006  00000+0  17594-3 0  9993
2 22236  82.5053 303.4717 0012803 280.4885  79.4894 14.96101012776987
SL-16 R/B               
1 22285U 92093B   26043.43957655  .00000146  00000+0  99153-4 0  9992
2 22285  71.0200  57.2733 0005260 320.6827  39.3913 14.15441607709589
COSMOS 2228             
1 22286U 92094A   26043.45646188  .00002041  00000+0  17425-3 0  9999
2 22286  82.5154 261.4742 0018821  30.9514 329.2813 14.97071935772285
SL-16 R/B               
1 22566U 93016B   26043.05338359 -.00000226  00000+0 -91748-4 0  9995
2 22566  71.0058 269.0285 0010475 348.8747  11.2142 14.15302762698548
COSMOS 2242             
1 22626U 93024A   26043.16053080  .00002580  00000+0  22461-3 0  9996
2 22626  82.5191 291.1349 0017425  35.5357 324.7021 14.96443864776572
SL-16 R/B               
1 22803U 93059B   26043.49111573 -.00000070  00000+0 -10692-4 0  9997
2 22803  70.9890  64.2664 0019475 251.3396 108.5614 14.17228262675966
ARIANE 40 R/B           
1 22830U 93061H   26043.21033022  .00000216  00000+0  95067-4 0  9991
2 22830  98.4972 112.5938 0010574   6.1102 354.0209 14.32847386690455
COSMOS 2278             
1 23087U 94023A   26043.49068273 -.00000002  00000+0  23859-4 0  9995
2 23087  71.0501 227.8171 0006786  61.8239 298.3569 14.14363474641246
SL-16 R/B               
1 23088U 94023B   26043.47789911  .00000209  00000+0  13262-3 0  9997
2 23088  70.9996 123.8374 0004560 309.4161  50.6558 14.15004761642527
SL-16 R/B               
1 23343U 94074B   26043.08408502  .00000547  00000+0  80048-4 0  9990
2 23343  97.7144  74.9350 0005471 314.0240  67.8491 14.79377114683464
SL-16 R/B               
1 23405U 94077B   26043.39868653  .00000302  00000+0  17895-3 0  9991
2 23405  70.9820  45.6954 0004162 232.6970 127.3773 14.15559222612653
ARIANE 40+ R/B          
1 23561U 95021B   26043.16636405  .00000319  00000+0  11561-3 0  9999
2 23561  98.4551 114.9880 0006266 209.7225 178.2783 14.39753476615578
SL-16 R/B               
1 23705U 95058B   26042.98041718  .00000227  00000+0  14023-3 0  9999
2 23705  71.0193 234.2301 0011995 168.7416 191.3977 14.15494672564211
SL-16 R/B               
1 24298U 96051B   26043.52864783  .00000106  00000+0  83985-4 0  9997
2 24298  70.7566 228.4950 0017256 183.5511 176.5489 14.12408432518095
ORBVIEW 2 (SEASTAR)     
1 24883U 97037A   26043.46436873  .00000377  00000+0  14741-3 0  9993
2 24883  98.8522 207.1141 0003076 123.0365 237.1115 14.35475442504854
SL-16 R/B               
1 25400U 98043G   26043.47273328  .00000080  00000+0  52401-4 0  9999
2 25400  98.8209 356.6642 0010963  87.8035 272.4400 14.26043774435392
SL-16 R/B               
1 25407U 98045B   26043.00399620  .00000221  00000+0  13565-3 0  9995
2 25407  71.0085 235.5895 0005522  55.6053 304.5592 14.16186137423461
ISS (ZARYA)             
1 25544U 98067A   26043.40753358  .00009524  00000+0  18329-3 0  9995
2 25544  51.6314 197.3334 0011100  91.0041 269.2219 15.48564056552412
CZ-4B R/B               
1 25732U 99025C   26043.11779808  .00000050  00000+0  44853-4 0  9992
2 25732  98.6679  87.9987 0037979  59.5435 315.2826 14.18260165384545
OKEAN-O                 
1 25860U 99039A   26043.16889005  .00000748  00000+0  10510-3 0  9991
2 25860  97.9501 103.3126 0001839  84.0156 276.1266 14.80293283430619
SL-16 R/B               
1 25861U 99039B   26043.17287061  .00000643  00000+0  88402-4 0  9997
2 25861  98.0023 102.3000 0014364 345.5928  14.4873 14.81695209433086
DELTA 2 R/B             
1 25876U 99041E   26043.38083955  .00002337  00000+0  41338-3 0  9993
2 25876  51.7655  42.3496 0502255 273.6704  80.6949 14.11738281359453
HELIOS 1B               
1 25977U 99064A   26043.22176417  .00001950  00000+0  22107-3 0  9992
2 25977  98.1723 304.7134 0002171 111.3012 248.8435 14.87592259681476
TERRA                   
1 25994U 99068A   26043.44251455  .00000511  00000+0  11321-3 0  9993
2 25994  97.9649  97.8347 0001001 244.4334 171.6869 14.60987089391394
SL-16 R/B               
1 26070U 00006B   26043.50726532 -.00000220  00000+0 -87622-4 0  9990
2 26070  71.0030 150.7865 0018229 225.8728 134.0896 14.15819848344995
TITAN 4B R/B            
1 26474U 00047B   26043.45020924  .00003568  00000+0  22784-3 0  9992
2 26474  67.9893 111.4722 0037032  66.3909 294.1122 15.09347670389107
ENVISAT                 
1 27386U 02009A   26043.45112457  .00000154  00000+0  63570-4 0  9995
2 27386  98.3684 357.6564 0001339  88.1701  22.0835 14.39027455255544
IDEFIX & ARIANE 42P R/B 
1 27422U 02021B   26043.39443402  .00000335  00000+0  14381-3 0  9996
2 27422  98.5843 342.3072 0010644 262.0139  97.9836 14.31007956240403
AQUA                    
1 27424U 02022A   26043.50745528  .00001218  00000+0  25318-3 0  9999
2 27424  98.4127  10.4231 0001380  50.3856  62.0137 14.61914190265055
CZ-4B R/B               
1 27432U 02024C   26043.18568395  .00000052  00000+0  49403-4 0  9996
2 27432  98.8898  96.7137 0051191  95.5178 333.2870 14.14543030225634
MIDORI II (ADEOS-II)    
1 27597U 02056A   26043.46180438  .00000378  00000+0  16626-3 0  9993
2 27597  98.7722   1.7726 0002176  77.9755 282.1671 14.29266205206693
H-2A R/B                
1 27601U 02056E   26043.52407201  .00000349  00000+0  13730-3 0  9997
2 27601  98.3154   4.8549 0069146 236.1127 236.5160 14.33743092210503
CZ-4B R/B               
1 28059U 03049C   26043.48940009  .00000564  00000+0  14109-3 0  9991
2 28059  98.6851  37.4112 0047294 309.5987  50.1038 14.54992973182931
CZ-2C R/B               
1 28222U 04012C   26043.12757859  .00052475  00000+0  60667-3 0  9992
2 28222  97.7300 106.0521 0015555  48.4261 311.8326 15.61574828200288
SL-16 R/B               
1 28353U 04021B   26043.07120360  .00000254  00000+0  15697-3 0  9993
2 28353  70.9994 286.2579 0003057  73.5276 286.6182 14.14591499119219
CZ-4B R/B               
1 28415U 04035C   26043.05560587  .00009254  00000+0  32971-3 0  9997
2 28415  97.3547  77.6100 0033961  61.2502 299.2143 15.28585904175994
CZ-2C R/B               
1 28480U 04046B   26043.38293517  .00000136  00000+0  66275-4 0  9998
2 28480  98.1994 319.9389 0138408 229.4288 129.4780 14.26983344104892
